stk.v.11.0

BEGIN Ephemeris

NumberOfEphemerisPoints 11866
ScenarioEpoch           24 Apr 2026 13:54:27.000000
InterpolationMethod     Lagrange
InterpolationOrder      5
CentralBody             Earth
CoordinateSystem        Fixed
DistanceUnit            Meters

EphemerisTimePosVel

2.73360000000000e+05 -1.58548526183201e+07 -9.11512441332464e+06 -2.51600119624123e+06 8.65788602207272e+01 -4.38676159502031e+03 -3.73286548583118e+01
2.73420000000000e+05 -1.58491624954446e+07 -9.37739982084558e+06 -2.51795568316140e+06 1.02930440200994e+02 -4.35574392651819e+03 -2.78520050494943e+01
2.73480000000000e+05 -1.58425201252963e+07 -9.63781295843223e+06 -2.51934715473631e+06 1.18324039494891e+02 -4.32468990580262e+03 -1.85612432292383e+01
2.73540000000000e+05 -1.58349823355015e+07 -9.89636234604460e+06 -2.52018672033441e+06 1.32781405662474e+02 -4.29362266322706e+03 -9.45487483060791e+00
2.73600000000000e+05 -1.58266046423247e+07 -1.01530478488290e+07 -2.52048539427358e+06 1.46324490697360e+02 -4.26256391568507e+03 -5.31229040770528e-01
2.73660000000000e+05 -1.58174412405921e+07 -1.04078705937131e+07 -2.52025408577204e+06 1.58975379053786e+02 -4.23153401361372e+03 8.21152383333528e+00
2.73720000000000e+05 -1.58075449977536e+07 -1.06608328888624e+07 -2.51950358991268e+06 1.70756221649355e+02 -4.20055198930937e+03 1.67753559544787e+01
2.73780000000000e+05 -1.57969674517307e+07 -1.09119381460643e+07 -2.51824457956353e+06 1.81689175579920e+02 -4.16963560613971e+03 2.51623664888724e+01
2.73840000000000e+05 -1.57857588122184e+07 -1.11611908060835e+07 -2.51648759819829e+06 1.91796349272257e+02 -4.13880140828014e+03 3.33747670676217e+01
2.73900000000000e+05 -1.57739679651209e+07 -1.14085962670075e+07 -2.51424305356187e+06 2.01099752793509e+02 -4.10806477064388e+03 4.14148681545853e+01
2.73960000000000e+05 -1.57616424798212e+07 -1.16541608155872e+07 -2.51152121212731e+06 2.09621253033297e+02 -4.07743994871448e+03 4.92850662954836e+01
2.74020000000000e+05 -1.57488286190011e+07 -1.18978915615578e+07 -2.50833219429197e+06 2.17382533474408e+02 -4.04694012802574e+03 5.69878322199438e+01
2.74080000000000e+05 -1.57355713507439e+07 -1.21397963749125e+07 -2.50468597026283e+06 2.24405058270495e+02 -4.01657747306772e+03 6.45256997657528e+01
2.74140000000000e+05 -1.57219143625631e+07 -1.23798838262251e+07 -2.50059235658242e+06 2.30710040388562e+02 -3.98636317542661e+03 7.19012555927429e+01
2.74200000000000e+05 -1.57079000777657e+07 -1.26181631291504e+07 -2.49606101324912e+06 2.36318413337896e+02 -3.95630750100880e+03 7.91171296524545e+01
2.74260000000000e+05 -1.56935696723303e+07 -1.28546440870935e+07 -2.49110144138744e+06 2.41250806744093e+02 -3.92641983618360e+03 8.61759863788864e+01
2.74320000000000e+05 -1.56789630942276e+07 -1.30893370412470e+07 -2.48572298142610e+06 2.45527524819397e+02 -3.89670873277208e+03 9.30805165652252e+01
2.74380000000000e+05 -1.56641190834037e+07 -1.33222528219723e+07 -2.47993481174388e+06 2.49168528008485e+02 -3.86718195176165e+03 9.98334298913684e+01
2.74440000000000e+05 -1.56490751928884e+07 -1.35534027026279e+07 -2.47374594774502e+06 2.52193417367915e+02 -3.83784650568651e+03 1.06437448067301e+02
2.74500000000000e+05 -1.56338678107624e+07 -1.37827983558991e+07 -2.46716524132857e+06 2.54621421492540e+02 -3.80870869961739e+03 1.12895298557823e+02
2.74560000000000e+05 -1.56185321828384e+07 -1.40104518125444e+07 -2.46020138071753e+06 2.56471385778696e+02 -3.77977417072118e+03 1.19209708854846e+02
2.74620000000000e+05 -1.56031024359217e+07 -1.42363754224710e+07 -2.45286289061616e+06 2.57761763825288e+02 -3.75104792636458e+03 1.25383401264292e+02
2.74680000000000e+05 -1.55876116015259e+07 -1.44605818180539e+07 -2.44515813266536e+06 2.58510610785322e+02 -3.72253438074747e+03 1.31419088175647e+02
2.74740000000000e+05 -1.55720916399351e+07 -1.46830838796078e+07 -2.43709530616817e+06 2.58735578491678e+02 -3.69423739006242e+03 1.37319467783261e+02
2.74800000000000e+05 -1.55565734645084e+07 -1.49038947029246e+07 -2.42868244905930e+06 2.58453912191989e+02 -3.66616028618513e+03 1.43087220229732e+02
2.74860000000000e+05 -1.55410869661362e+07 -1.51230275687885e+07 -2.41992743909393e+06 2.57682448738208e+02 -3.63830590890891e+03 1.48725004142851e+02
2.74920000000000e+05 -1.55256610377654e+07 -1.53404959143827e+07 -2.41083799523332e+06 2.56437616086897e+02 -3.61067663674240e+03 1.54235453538920e+02
2.74980000000000e+05 -1.55103235989179e+07 -1.55563133065001e+07 -2.40142167920584e+06 2.54735433976330e+02 -3.58327441629552e+03 1.59621175066506e+02
2.75040000000000e+05 -1.54951016201372e+07 -1.57704934164771e+07 -2.39168589722370e+06 2.52591515656057e+02 -3.55610079028317e+03 1.64884745565982e+02
2.75100000000000e+05 -1.54800211471630e+07 -1.59830499969003e+07 -2.38163790183736e+06 2.50021070584553e+02 -3.52915692417791e+03 1.70028709921518e+02
2.75160000000000e+05 -1.54651073256136e+07 -1.61939968592003e+07 -2.37128479391047e+06 2.47038907804230e+02 -3.50244363156112e+03 1.75055579183419e+02
2.75220000000000e+05 -1.54503844240533e+07 -1.64033478540744e+07 -2.36063352470002e+06 2.43659440357124e+02 -3.47596139817872e+03 1.79967828939988e+02
2.75280000000000e+05 -1.54358758581653e+07 -1.66111168519691e+07 -2.34969089802701e+06 2.39896690035072e+02 -3.44971040478591e+03 1.84767897919283e+02
2.75340000000000e+05 -1.54216042139276e+07 -1.68173177255706e+07 -2.33846357252477e+06 2.35764292844015e+02 -3.42369054879019e+03 1.89458186802330e+02
2.75400000000000e+05 -1.54075912705842e+07 -1.70219643334241e+07 -2.32695806395245e+06 2.31275504921346e+02 -3.39790146474871e+03 1.94041057230478e+02
2.75460000000000e+05 -1.53938580232498e+07 -1.72250705047503e+07 -2.31518074756268e+06 2.26443208867620e+02 -3.37234254376117e+03 1.98518830990707e+02
2.75520000000000e+05 -1.53804247051227e+07 -1.74266500253932e+07 -2.30313786051319e+06 2.21279920429412e+02 -3.34701295180207e+03 2.02893789363726e+02
2.75580000000000e+05 -1.53673108092883e+07 -1.76267166248367e+07 -2.29083550431300e+06 2.15797795475555e+02 -3.32191164703571e+03 2.07168172620706e+02
2.75640000000000e+05 -1.53545351100966e+07 -1.78252839642313e+07 -2.27827964729466e+06 2.10008637214321e+02 -3.29703739615722e+03 2.11344179655469e+02
2.75700000000000e+05 -1.53421156840996e+07 -1.80223656253724e+07 -2.26547612710480e+06 2.03923903604110e+02 -3.27238878980220e+03 2.15423967739850e+02
2.75760000000000e+05 -1.53300699305408e+07 -1.82179751005771e+07 -2.25243065320598e+06 1.97554714914570e+02 -3.24796425706684e+03 2.19409652390808e+02
2.75820000000000e+05 -1.53184145913868e+07 -1.84121257834060e+07 -2.23914880938345e+06 1.90911861399471e+02 -3.22376207917970e+03 2.23303307338690e+02
2.75880000000000e+05 -1.53071657708954e+07 -1.86048309601807e+07 -2.22563605625094e+06 1.84005811046400e+02 -3.19978040236498e+03 2.27106964586826e+02
2.75940000000000e+05 -1.52963389547188e+07 -1.87961038022505e+07 -2.21189773375043e+06 1.76846717372014e+02 -3.17601724993632e+03 2.30822614553342e+02
2.76000000000000e+05 -1.52859490283714e+07 -1.89859573590949e+07 -2.19793906364117e+06 1.69444427262263e+02 -3.15247053365750e+03 2.34452206286773e+02
2.76060000000000e+05 -1.52760102960548e+07 -1.91744045514223e+07 -2.18376515197368e+06 1.61808488667984e+02 -3.12913806441538e+03 2.37997647747704e+02
2.76120000000000e+05 -1.52665364973688e+07 -1.93614581662186e+07 -2.16938099154512e+06 1.53948158545825e+02 -3.10601756221806e+03 2.41460806149264e+02
2.76180000000000e+05 -1.52575408252004e+07 -1.95471308510468e+07 -2.15479146433259e+06 1.45872410474688e+02 -3.08310666558238e+03 2.44843508349842e+02
2.76240000000000e+05 -1.52490359423304e+07 -1.97314351095576e+07 -2.14000134390144e+06 1.37589942343628e+02 -3.06040294032074e+03 2.48147541291965e+02
2.76300000000000e+05 -1.52410339977472e+07 -1.99143832973760e+07 -2.12501529778610e+06 1.29109183930544e+02 -3.03790388776788e+03 2.51374652481716e+02
2.76360000000000e+05 -1.52335466425088e+07 -2.00959876184666e+07 -2.10983788984087e+06 1.20438304386087e+02 -3.01560695247614e+03 2.54526550503581e+02
2.76420000000000e+05 -1.52265850451579e+07 -2.02762601219448e+07 -2.09447358255913e+06 1.11585219611422e+02 -2.99350952940813e+03 2.57604905565986e+02
2.76480000000000e+05 -1.52201599066990e+07 -2.04552126993050e+07 -2.07892673935874e+06 1.02557599519992e+02 -2.97160897065441e+03 2.60611350073238e+02
2.76540000000000e+05 -1.52142814751426e+07 -2.06328570820386e+07 -2.06320162683266e+06 9.33628751749525e+01 -2.94990259170250e+03 2.63547479219903e+02
2.76600000000000e+05 -1.52089595596254e+07 -2.08092048396155e+07 -2.04730241696314e+06 8.40082457952835e+01 -2.92838767728230e+03 2.66414851604037e+02
2.76660000000000e+05 -1.52042035441142e+07 -2.09842673778037e+07 -2.03123318929880e+06 7.45006856247505e+01 -2.90706148681204e+03 2.69214989855978e+02
2.76720000000000e+05 -1.52000224007020e+07 -2.11580559373045e+07 -2.01499793309342e+06 6.48469506589809e+01 -2.88592125946740e+03 2.71949381279699e+02
2.76780000000000e+05 -1.51964247025045e+07 -2.13305815926814e+07 -1.99860054940611e+06 5.50535852269154e+01 -2.86496421889556e+03 2.74619478504032e+02
2.76840000000000e+05 -1.51934186361666e+07 -2.15018552515609e+07 -1.98204485316202e+06 4.51269284237383e+01 -2.84418757759480e+03 2.77226700141269e+02
2.76900000000000e+05 -1.51910120137984e+07 -2.16718876542195e+07 -1.96533457517350e+06 3.50731204177168e+01 -2.82358854097890e+03 2.79772431450924e+02
2.76960000000000e+05 -1.51892122854802e+07 -2.18406893727447e+07 -1.94847336412124e+06 2.48981084821935e+01 -2.80316431114683e+03 2.82258025006634e+02
2.77020000000000e+05 -1.51880265495256e+07 -2.20082708117347e+07 -1.93146478849537e+06 1.46076531209060e+01 -2.78291209037028e+03 2.84684801364383e+02
2.77080000000000e+05 -1.51874615642654e+07 -2.21746422078783e+07 -1.91431233849651e+06 4.20733379386911e+00 -2.76282908432286e+03 2.87054049730402e+02
2.77140000000000e+05 -1.51875237585515e+07 -2.23398136303819e+07 -1.89701942789673e+06 -6.29744538604245e+00 -2.74291250506100e+03 2.89367028627292e+02
END Ephemeris
